
STARLINK-3703           
1 52101U 22029P   25029.47639498 -.00001108  00000+0 -51544-4 0  9996
2 52101  53.2174 103.8978 0001546  88.9936 271.1233 15.08836553159624
STARLINK-3709           
1 52102U 22029Q   25029.46720943  .00000413  00000+0  44038-4 0  9998
2 52102  53.2174  93.7448 0001534  80.5663 279.5502 15.08837705159762
STARLINK-3705           
1 52103U 22029R   25029.44048937 -.00000150  00000+0  86444-5 0  9990
2 52103  53.2176  93.8636 0001459  92.0067 268.1092 15.08843655159755
STARLINK-3706           
1 52105U 22029T   25029.43408634  .00000846  00000+0  71244-4 0  9997
2 52105  53.2192  93.8946 0001543  96.6153 263.5015 15.08840941159758
STARLINK-3670           
1 52106U 22029U   25029.52053365  .00002869  00000+0  19833-3 0  9997
2 52106  53.2188 103.5084 0001354  72.0519 288.0620 15.08833773159636
STARLINK-3658           
1 52107U 22029V   25029.49569582  .00000997  00000+0  80760-4 0  9995
2 52107  53.2175  93.6140 0001250  96.5210 263.5924 15.08833752159765
STARLINK-3698           
1 52108U 22029W   25029.43680937  .00001219  00000+0  94662-4 0  9992
2 52108  53.2179  93.8821 0001416 101.2723 258.8428 15.08838646159757
STARLINK-3687           
1 52110U 22029Y   25029.49936978  .00001645  00000+0  12141-3 0  9994
2 52110  53.2184  93.5996 0001471  89.9225 270.1936 15.08848646159769
STARLINK-3708           
1 52111U 22029Z   25029.48465384 -.00001400  00000+0 -69861-4 0  9995
2 52111  53.2170  93.6681 0001393  96.4657 263.6493 15.08838845159767
STARLINK-3734           
1 52112U 22029AA  25029.49201097  .00000728  00000+0  63807-4 0  9990
2 52112  53.2177  93.6313 0001417  92.7856 267.3299 15.08842533159768
STARLINK-3736           
1 52113U 22029AB  25029.14609274  .00001627  00000+0  12022-3 0  9993
2 52113  53.2161  95.1884 0001608  84.8008 275.3167 15.08854597159716
STARLINK-3737           
1 52114U 22029AC  25029.48833397  .00000614  00000+0  56681-4 0  9991
2 52114  53.2183  93.6500 0001568  91.8906 268.2265 15.08838540159775
STARLINK-3685           
1 52115U 22029AD  25029.13873104  .00000077  00000+0  22928-4 0  9994
2 52115  53.2166  95.2188 0001449  85.2408 274.8749 15.08839661159718
STARLINK-3735           
1 52116U 22029AE  25029.48097698 -.00000047  00000+0  15162-4 0  9999
2 52116  53.2158  93.6826 0001166  83.9634 276.1491 15.08836676159760
STARLINK-3738           
1 52117U 22029AF  25029.46258110 -.00002423  00000+0 -13430-3 0  9992
2 52117  53.2170  93.7674 0001180 103.2752 256.8372 15.08816431159771
STARLINK-3743           
1 52118U 22029AG  25029.47361426  .00000090  00000+0  23732-4 0  9992
2 52118  53.2161  93.7159 0001075  85.0198 275.0917 15.08832593159768
STARLINK-3558           
1 52119U 22029AH  25029.45521131 -.00001234  00000+0 -59422-4 0  9990
2 52119  53.2154  93.8011 0001282  84.9523 275.1615 15.08841597159770
STARLINK-3534           
1 52120U 22029AJ  25029.46625204  .00000116  00000+0  25355-4 0  9993
2 52120  53.2166  93.7506 0001526  98.8121 261.3044 15.08835543159779
STARLINK-3678           
1 52121U 22029AK  25029.43773770  .00000357  00000+0  40513-4 0  9993
2 52121  53.2184  83.8784 0001455  92.1446 267.9713 15.08832511159896
STARLINK-3726           
1 52122U 22029AL  25029.45887914  .00000388  00000+0  42467-4 0  9996
2 52122  53.2181  93.7854 0001396  88.3581 271.7571 15.08847833159767
STARLINK-3725           
1 52123U 22029AM  25029.42395851 -.00000366  00000+0 -49338-5 0  9991
2 52123  53.2167  83.8731 0001353  90.1394 269.9753 15.08838886159907
STARLINK-3727           
1 52125U 22029AP  25029.16173149 -.00000369  00000+0 -51258-5 0  9995
2 52125  53.2161  85.1160 0001356  86.9702 273.1445 15.08837326159861
STARLINK-3732           
1 52126U 22029AQ  25029.43405564 -.00000672  00000+0 -24122-4 0  9991
2 52126  53.2170  83.8917 0001367  83.9684 276.1463 15.08835556159894
STARLINK-3715           
1 52127U 22029AR  25029.42300540  .00001392  00000+0  10553-3 0  9999
2 52127  53.2196  83.9431 0001944  91.4762 268.6453 15.08839156159892
STARLINK-3661           
1 52129U 22029AT  25028.42204800  .00001096  00000+0  86941-4 0  9998
2 52129  53.2179  88.4332 0001262 103.9512 256.1621 15.08830773159750
STARLINK-3711           
1 52131U 22029AV  25029.41196966  .00001308  00000+0  10023-3 0  9997
2 52131  53.2173  83.9922 0001496  90.2921 269.8243 15.08842748159906
STARLINK-3718           
1 52132U 22029AW  25029.41933032 -.00000052  00000+0  14851-4 0  9991
2 52132  53.2177  83.9584 0001564  95.3780 264.7390 15.08838198159901
STARLINK-3707           
1 52133U 22029AX  25029.13965524  .00001269  00000+0  97811-4 0  9999
2 52133  53.2177  85.2153 0001669  92.3944 267.7239 15.08831527159863
STARLINK-3721           
1 52134U 22029AY  25029.14332931  .00006326  00000+0  41504-3 0  9997
2 52134  53.2172  85.1996 0001673  83.3095 276.8087 15.08856750159862
STARLINK-3729           
1 52135U 22029AZ  25029.46077140  .00000466  00000+0  47392-4 0  9992
2 52135  53.2176  83.7822 0001433  98.8961 261.2193 15.08838045159915
STARLINK-3720           
1 52136U 22029BA  25029.46717008 -.00001327  00000+0 -65275-4 0  9996
2 52136  53.2158  83.7434 0001503  91.6012 268.5152 15.08841861159916
STARLINK-3733           
1 52137U 22029BB  25029.45614316  .00002034  00000+0  14587-3 0  9997
2 52137  53.2170  83.7941 0001653  93.2840 266.8341 15.08838221159914
STARLINK-3723           
1 52138U 22029BC  25029.46349380 -.00000107  00000+0  11360-4 0  9992
2 52138  53.2169  83.7601 0001334  92.4124 267.7020 15.08839544159911
STARLINK-3730           
1 52139U 22029BD  25029.44418582  .00001689  00000+0  12419-3 0  9992
2 52139  53.2159  93.8492 0001552  87.3382 272.7788 15.08831485159768
STARLINK-3682           
1 52140U 22029BE  25029.45244797  .00000018  00000+0  19256-4 0  9992
2 52140  53.2170  83.8127 0001630  92.7627 267.3552 15.08840364159918
MERIDIAN 10             
1 52145U 22030A   25026.00803248  .00000252  00000+0  00000+0 0  9991
2 52145  62.6582 194.1682 6764030 273.6194  17.5109  2.00598770 20853
TK-2                    
1 52150U 22031A   25029.54196908  .00005247  00000+0  42948-3 0  9998
2 52150  97.8483 215.5712 0015079  53.6926 306.5687 14.99672277154874
PUJIANG 2 (PJ-2)        
1 52151U 22031B   25029.53592103  .00001357  00000+0  13507-3 0  9992
2 52151  97.8448 210.2029 0013397  76.0304 284.2404 14.93252927154609
TIANPING 2A             
1 52153U 22032A   25029.56638856  .00002642  00000+0  24673-3 0  9998
2 52153  97.6548  75.6019 0012102  69.6728 290.5792 14.94956629154536
TIANPING 2B             
1 52155U 22032C   25029.52607581  .00004624  00000+0  39127-3 0  9999
2 52155  97.6575  79.9092 0015249  78.3548 281.9385 14.98427910154765
TIANPING 2C             
1 52156U 22032D   25029.50552147  .00010017  00000+0  72782-3 0  9992
2 52156  97.6524  81.3211 0009140  77.9107 282.3142 15.04020906154947
OMNI-L1                 
1 52157U 22033A   25029.20445644  .00005492  00000+0  73947-3 0  9999
2 52157  97.8798 113.0690 0006684 121.1844 239.0024 14.79581237152831
GNOMES-3                
1 52158U 22033B   25028.22817665  .00005019  00000+0  64125-3 0  9990
2 52158  97.8700 108.2712 0011881 168.6109 191.5375 14.81799849152464
ENMAP                   
1 52159U 22033C   25028.91655488  .00001367  00000+0  21080-3 0  9995
2 52159  97.9769 113.3972 0001450  87.5572 272.5803 14.74987269152328
ARCSAT-1                
1 52161U 22033E   25028.47144010  .00016129  00000+0  40984-3 0  9999
2 52161  97.3051 112.8381 0005519 222.7336 137.3481 15.39697274157699
LYNK TOWER 1            
1 52162U 22033F   25029.50583698  .00033048  00000+0  63984-3 0  9998
2 52162  97.3036 116.2289 0005413 190.8573 169.2562 15.47646165158012
HAWK-4B                 
1 52165U 22033J   25029.22683586  .00059525  00000+0  78664-3 0  9996
2 52165  97.3046 120.5072 0004355 188.2858 171.8327 15.58156301158260
HAWK-4A                 
1 52167U 22033L   25029.22652381  .00059083  00000+0  78115-3 0  9997
2 52167  97.2990 119.8125 0004216 185.5418 174.5792 15.58146675158266
HAWK-4C                 
1 52170U 22033P   25029.22637403  .00058688  00000+0  77574-3 0  9997
2 52170  97.3048 120.4779 0005593 177.1696 182.9593 15.58147062158265
NUSAT-25 (MARIA TELKES) 
1 52171U 22033Q   25029.49676243  .00055581  00000+0  11577-2 0  9991
2 52171  97.2686 112.2796 0001777  95.5345 264.6107 15.45411636158115
BRO-7                   
1 52174U 22033T   25029.49944181  .00044768  00000+0  55444-3 0  9990
2 52174  97.3076 122.4098 0006723 165.9028 194.2417 15.59928419158418
NUSAT-26 (M SOMERVILLE) 
1 52184U 22033AD  25029.17131001  .00029889  00000+0  99518-3 0  9992
2 52184  97.2850 111.9902 0010325 241.5524 118.4677 15.31030884157763
GLOBAL-18               
1 52196U 22034B   25028.51943160  .00030168  00000+0  77402-3 0  9990
2 52196  52.9886 126.1155 0005438 352.4444   7.6476 15.39094113159191
GLOBAL-20               
1 52197U 22034C   25029.53218086  .00135116  00000+0  97210-3 0  9994
2 52197  52.9822  82.0615 0008194 110.1065 250.0834 15.72658532159890
GAOFEN-3 03             
1 52200U 22035A   25029.47591545  .00000228  00000+0  82527-4 0  9998
2 52200  98.4123  40.2301 0000791  92.6410 267.4870 14.42220887148259
COSMOS 2554             
1 52202U 22036A   25029.49738954 -.00000003  00000+0  51833-4 0  9998
2 52202  67.1478  12.9072 0005922 259.0217 101.0202 13.96671665143612
ZHONGXING-6D            
1 52255U 22038A   25028.29746291 -.00000342  00000+0  00000+0 0  9999
2 52255   0.0553 255.0539 0003151  39.7267  65.1672  1.00272638 10363
DAQI 1                  
1 52257U 22039A   25029.44629640  .00001085  00000+0  24755-3 0  9999
2 52257  98.2337 330.3571 0003134  25.0981 335.0370 14.57756760148555
